CAS-2T & KS-1Q          
1 41847U 16066G   21158.87384087  .00000088  00000-0  24370-4 0  9991
2 41847  98.6017 217.9639 0364118 248.9291 107.2606 14.38192929240503
NAYIF-1 (EO-88)         
1 42017U 17008BX  21158.93545639  .00001872  00000-0  70856-4 0  9999
2 42017  97.3163 226.7052 0007330 132.4075 227.7786 15.28143118239809
ZHUHAI-1 02 (CAS-4B)    
1 42759U 17034B   21159.43611225  .00000171  00000-0  23590-4 0  9996
2 42759  43.0169 230.6549 0007303 107.5206   2.6445 15.10219226219782
ZHUHAI-1 01 (CAS-4A)    
1 42761U 17034D   21159.42763053  .00000182  00000-0  24206-4 0  9992
2 42761  43.0174 229.7652 0007748 108.4169   1.8607 15.10306276219789
MAX VALIER SAT          
1 42778U 17036P   21158.91220624  .00001053  00000-0  46805-4 0  9994
2 42778  97.2554 207.8359 0011142 201.6158 158.4610 15.23586863219833
RADFXSAT (FOX-1B)       
1 43017U 17073E   21159.47403647  .00000827  00000-0  69348-4 0  9997
2 43017  97.7079  63.8157 0254258 330.0257  28.6599 14.79552227191792
FOX-1D (AO-92)          
1 43137U 18004AC  21158.95128600  .00001163  00000-0  49131-4 0  9992
2 43137  97.4068 233.0795 0007338 238.6867 121.3653 15.25232939189217
DIWATA-2B               
1 43678U 18084H   21159.46530921  .00000305  00000-0  35967-4 0  9999
2 43678  97.9226 284.6988 0011433  81.3069 278.9423 14.91754889142096
ES'HAIL 2               
1 43700U 18090A   21159.30515486  .00000156  00000-0  00000+0 0  9993
2 43700   0.0223 353.7041 0000931  99.8560 298.9897  1.00270863  9521
FOX-1CLIFF (AO-95)      
1 43770U 18099N   21158.74706089  .00000704  00000-0  68877-4 0  9997
2 43770  97.6653 229.1484 0016206  90.7689 269.5389 14.95320232137007
ITASAT 1                
1 43786U 18099AE  21158.80198820  .00000568  00000-0  56194-4 0  9996
2 43786  97.6669 229.8733 0016729  84.5429 275.7700 14.95612797137048
JY1SAT (JO-97)          
1 43803U 18099AX  21158.76742865 -.00000019  00000-0  33851-5 0  9993
2 43803  97.6634 229.5926 0016681  83.9897 276.3225 14.95861172137042
UWE-4                   
1 43880U 18111E   21158.69070302  .00000907  00000-0  84013-4 0  9995
2 43880  97.6881  66.5898 0013517 131.3652 228.8734 14.96863692133627
PSAT2 (NO-104)          
1 44354U 19036R   21159.40305327  .00013375  00000-0  17534-3 0  9993
2 44354  28.5267 187.3725 0326379 177.8669 182.3385 15.13282872107590
BRICSAT2 (NO-103)       
1 44355U 19036S   21159.13856920  .00020751  00000-0  22721-3 0  9994
2 44355  28.5250 145.5898 0265658 246.0001 111.2572 15.28994810107992
JAISAT-1                
1 44419U 19038F   21159.11947887  .00001035  00000-0  60885-4 0  9996
2 44419  97.5878 123.8551 0020765 349.4903  10.5891 15.13746361106384
DUCHIFAT-3              
1 44854U 19089C   21159.33765656  .00000347  00000-0  34107-4 0  9994
2 44854  36.9658 154.5425 0007582  57.7479 302.4002 14.99492796 81731
RS-44 & BREEZE-KM R/B   
1 44909U 19096E   21159.40213862  .00000005  00000-0 -32080-4 0  9998
2 44909  82.5199 118.8264 0218405 114.1165 248.2946 12.79710096 67719
ORBITAL FACTORY 2 (OF-2)
1 45113U 19071C   21158.83973067  .00001801  00000-0  61982-4 0  9992
2 45113  51.6427  84.1224 0011169 258.7878 101.1849 15.35710658 75697
HUSKYSAT-1 (HO-107)     
1 45119U 19071J   21158.85131183  .00002528  00000-0  82462-4 0  9998
2 45119  51.6424  83.4452 0010574 255.2076 104.7736 15.35742432 75695
BY70-2                  
1 45857U 20042B   21159.49951722  .00001183  00000-0  17499-3 0  9990
2 45857  97.9835 235.3397 0009614 236.2787 123.7511 14.77008505 50225
SALSAT                  
1 46495U 20068K   21158.94367767  .00000073  00000-0  98918-5 0  9990
2 46495  97.6951  96.4962 0019012 102.5536 257.7814 15.03459123 37904
BY70-3                  
1 46839U 20079N   21159.43744476  .00002630  00000-0  83261-4 0  9990
2 46839  97.2408 233.4721 0005643 229.3880 186.5398 15.33624323 32821
RADFXSAT-2 (AO-109)     
1 47311U 21002C   21158.83018295  .00000622  00000-0  39095-4 0  9994
2 47311  60.6849 327.2215 0035096  42.6797 317.7006 15.21627878 21409
UVSQ-SAT                
1 47438U 21006AB  21158.39599267  .00000749  00000-0  45844-4 0  9991
2 47438  97.4878 219.7997 0014130 128.7009 231.5488 15.13118503 20530
DIY-1 (ARDUIQUBE)       
1 47963U 21022AH  21158.53619750  .00002323  00000-0  15786-3 0  9999
2 47963  97.5599  61.0450 0019467 344.3107  15.7515 15.07207613 10401
